NORAD_CAT_ID,OBJECT_NAME,OBJECT_TYPE,EPOCH,MEAN_MOTION,ECCENTRICITY,INCLINATION,RA_OF_ASC_NODE,ARG_OF_PERICENTER,MEAN_ANOMALY,BSTAR,MEAN_MOTION_DOT,MEAN_MOTION_DDOT,TLE_LINE0,TLE_LINE1,TLE_LINE2,SEMIMAJOR_AXIS,PERIOD,APOGEE,PERIGEE,DECAYED
53844.0,STARLINK-4745,PAYLOAD,2023-01-12 20:15:59,15.0882874,0.0001460999999999,53.2179,64.844,55.3461,304.7668,-1.0320999999999997e-05,-4.52e-06,0.0,0 STARLINK-4745,1 53844U 22114AC  23012.84443804 -.00000452  00000-0 -10321-4 0  9991,2 53844  53.2179  64.8440 0001461  55.3461 304.7668 15.08828740 19080,6917.915,95.438,540.7909999999998,538.769,0.0
53844.0,STARLINK-4745,PAYLOAD,2023-01-12 23:26:46,15.088172,0.0001493,53.2192,64.2474,56.6381,303.4754,-0.00020191,-3.498e-05,0.0,0 STARLINK-4745,1 53844U 22114AC  23012.97693225 -.00003498  00000-0 -20191-3 0  9997,2 53844  53.2192  64.2474 0001493  56.6381 303.4754 15.08817200 18569,6917.95,95.439,540.8480000000002,538.7819999999998,0.0
53844.0,STARLINK-4745,PAYLOAD,2023-01-13 12:09:51,15.08835762,0.0001322,53.2183,61.8676,61.8051,298.3074,-7.336e-05,-1.455e-05,0.0,0 STARLINK-4745,1 53844U 22114AC  23013.50684069 -.00001455  00000-0 -73360-4 0  9991,2 53844  53.2183  61.8676 0001322  61.8051 298.3074 15.08835762 18648,6917.893,95.438,540.673,538.844,0.0
53844.0,STARLINK-4745,PAYLOAD,2023-01-13 20:06:47,15.08824119,0.0001479,53.2184,60.3818,57.4103,302.7032,-4.4544e-05,-9.96e-06,0.0,0 STARLINK-4745,1 53844U 22114AC  23013.83804980 -.00000996  00000-0 -44544-4 0  9994,2 53844  53.2184  60.3818 0001479  57.4103 302.7032 15.08824119 19237,6917.929,95.439,540.817,538.771,0.0
53844.0,STARLINK-4745,PAYLOAD,2023-01-13 23:17:33,15.08825289,0.0001564,53.2193,59.7888,69.5518,290.5642,-4.3543e-05,-9.81e-06,0.0,0 STARLINK-4745,1 53844U 22114AC  23013.97053124 -.00000981  00000-0 -43543-4 0  9997,2 53844  53.2193  59.7888 0001564  69.5518 290.5642 15.08825289 18717,6917.925,95.438,540.872,538.7080000000001,0.0
53844.0,STARLINK-4745,PAYLOAD,2023-01-14 10:25:14,15.08844331,0.0001495,53.2192,57.7079,68.6259,291.4892,9.7629e-05,1.266e-05,0.0,0 STARLINK-4745,1 53844U 22114AC  23014.43419684  .00001266  00000-0  97629-4 0  9995,2 53844  53.2192  57.7079 0001495  68.6259 291.4892 15.08844331 18784,6917.866999999999,95.437,540.766,538.698,0.0
53844.0,STARLINK-4745,PAYLOAD,2023-01-14 19:57:34,15.08831848,0.0001472,53.2186,55.9242,68.8025,291.3125,3.2234000000000003e-05,2.25e-06,0.0,0 STARLINK-4745,1 53844U 22114AC  23014.83164787  .00000225  00000-0  32234-4 0  9995,2 53844  53.2186  55.9242 0001472  68.8025 291.3125 15.08831848 18841,6917.905,95.438,540.789,538.752,0.0
53844.0,STARLINK-4745,PAYLOAD,2023-01-14 23:08:21,15.08822709,0.0001899,53.217,55.3274,78.9746,281.1459,6.535e-05,7.52e-06,0.0,0 STARLINK-4745,1 53844U 22114AC  23014.96413430  .00000752  00000-0  65350-4 0  9991,2 53844  53.2170  55.3274 0001899  78.9746 281.1459 15.08822709 18863,6917.933000000001,95.439,541.112,538.485,0.0
53844.0,STARLINK-4745,PAYLOAD,2023-01-15 11:51:26,15.08832589,0.0001553,53.2168,52.9484,89.6733,270.4437,1.1036e-05,-1.12e-06,0.0,0 STARLINK-4745,1 53844U 22114AC  23015.49405360 -.00000112  00000-0  11036-4 0  9996,2 53844  53.2168  52.9484 0001553  89.6733 270.4437 15.08832589 19481,6917.903,95.438,540.842,538.694,0.0
53844.0,STARLINK-4745,PAYLOAD,2023-01-15 19:48:21,15.08839742,0.0001648,53.2174,51.4636,81.9412,278.1767,3.7394e-05,3.07e-06,0.0,0 STARLINK-4745,1 53844U 22114AC  23015.82524953  .00000307  00000-0  37394-4 0  9993,2 53844  53.2174  51.4636 0001648  81.9412 278.1767 15.08839742 18999,6917.880999999999,95.438,540.886,538.606,0.0
53844.0,STARLINK-4745,PAYLOAD,2023-01-16 06:56:02,15.0885332,0.0001808,53.217,49.3809,79.2846,280.835,0.00012793,1.749e-05,0.0,0 STARLINK-4745,1 53844U 22114AC  23016.28891722  .00001749  00000-0  12793-3 0  9991,2 53844  53.2170  49.3809 0001808  79.2846 280.8350 15.08853320 19067,6917.84,95.437,540.955,538.4540000000001,0.0
53844.0,STARLINK-4745,PAYLOAD,2023-01-16 11:42:10,15.08869176,0.0001398,53.2194,48.4865,89.4271,270.6881,0.00013789,1.909e-05,0.0,0 STARLINK-4745,1 53844U 22114AC  23016.48762387  .00001909  00000-0  13789-3 0  9991,2 53844  53.2194  48.4865 0001398  89.4271 270.6881 15.08869176 19099,6917.791,95.436,540.623,538.689,0.0
53844.0,STARLINK-4745,PAYLOAD,2023-01-16 19:39:10,15.08822511,0.0002473,53.2207,47.0009,75.8084,284.3183,-0.00011794,-2.164e-05,0.0,0 STARLINK-4745,1 53844U 22114AC  23016.81886585 -.00002164  00000-0 -11794-3 0  9995,2 53844  53.2207  47.0009 0002473  75.8084 284.3183 15.08822511 19140,6917.934,95.439,541.51,538.0880000000001,0.0
53844.0,STARLINK-4745,PAYLOAD,2023-01-17 08:22:15,15.08807942,0.0001751999999999,53.2213,44.6212,84.86399999999999,275.2553,-1.0873e-05,-4.61e-06,0.0,0 STARLINK-4745,1 53844U 22114AC  23017.34879546 -.00000461  00000-0 -10873-4 0  9999,2 53844  53.2213  44.6212 0001752  84.8640 275.2553 15.08807942 19223,6917.978,95.44,541.055,538.631,0.0
53844.0,STARLINK-4745,PAYLOAD,2023-01-17 22:40:42,15.0883763,0.0001450999999999,53.2187,41.945,83.8647,276.2511,-1.6681e-06,-3.14e-06,0.0,0 STARLINK-4745,1 53844U 22114AC  23017.94493732 -.00000314  00000-0 -16681-5 0  9995,2 53844  53.2187  41.9450 0001451  83.8647 276.2511 15.08837630 19311,6917.888000000001,95.438,540.756,538.749,0.0
53844.0,STARLINK-4745,PAYLOAD,2023-01-18 08:12:59,15.08860916,0.0001024,53.2206,40.1611,71.7595,288.3508,0.00016348,2.316e-05,0.0,0 STARLINK-4745,1 53844U 22114AC  23018.34235423  .00002316  00000-0  16348-3 0  9991,2 53844  53.2206  40.1611 0001024  71.7595 288.3508 15.08860916 19376,6917.816,95.436,540.39,538.9730000000001,0.0
53844.0,STARLINK-4745,PAYLOAD,2023-01-18 11:23:44,15.08879055,0.0001346,53.219,39.5655,78.3942,281.7201,9.7679e-05,1.269e-05,0.0,0 STARLINK-4745,1 53844U 22114AC  23018.47482309  .00001269  00000-0  97679-4 0  9995,2 53844  53.2190  39.5655 0001346  78.3942 281.7201 15.08879055 19937,6917.761,95.435,540.557,538.695,0.0
53844.0,STARLINK-4745,PAYLOAD,2023-01-18 17:45:19,15.08846466,0.0002254,53.2199,38.3757,84.9684,275.1565,-0.00015611,-2.773e-05,0.0,0 STARLINK-4745,1 53844U 22114AC  23018.73981224 -.00002773  00000-0 -15611-3 0  9992,2 53844  53.2199  38.3757 0002254  84.9684 275.1565 15.08846466 19436,6917.861,95.437,541.285,538.1659999999999,0.0
53844.0,STARLINK-4745,PAYLOAD,2023-01-18 22:31:29,15.08822882,0.0001737,53.2206,37.4864,87.6676,272.4515,6.4327e-05,7.35e-06,0.0,0 STARLINK-4745,1 53844U 22114AC  23018.93853899  .00000735  00000-0  64327-4 0  9993,2 53844  53.2206  37.4864 0001737  87.6676 272.4515 15.08822882 19464,6917.933000000001,95.439,540.999,538.596,0.0
53844.0,STARLINK-4745,PAYLOAD,2023-01-19 11:14:34,15.08831748,0.0001266,53.2185,35.1025,79.6241,280.4894,0.00015069,2.111e-05,0.0,0 STARLINK-4745,1 53844U 22114AC  23019.46845243  .00002111  00000-0  15069-3 0  9994,2 53844  53.2185  35.1025 0001266  79.6241 280.4894 15.08831748 19549,6917.906,95.438,540.646,538.895,0.0
53844.0,STARLINK-4745,PAYLOAD,2023-01-19 22:22:17,15.08833631,0.0001252999999999,53.2201,33.0261,91.749,268.3646,-0.00029978,-5.055e-05,0.0,0 STARLINK-4745,1 53844U 22114AC  23019.93215009 -.00005055  00000-0 -29978-3 0  9993,2 53844  53.2201  33.0261 0001253  91.7490 268.3646 15.08833631 19615,6917.9,95.438,540.632,538.898,0.0
53844.0,STARLINK-4745,PAYLOAD,2023-01-20 09:29:58,15.08844685,0.000134,53.2195,30.9444,84.9339,275.1806,-0.00016716,-2.948e-05,0.0,0 STARLINK-4745,1 53844U 22114AC  23020.39581872 -.00002948  00000-0 -16716-3 0  9993,2 53844  53.2195  30.9444 0001340  84.9339 275.1806 15.08844685 19681,6917.866,95.437,540.658,538.804,0.0
53844.0,STARLINK-4745,PAYLOAD,2023-01-22 06:00:46,15.08830775,0.0001419,53.2191,22.6192,108.7496,251.365,0.00011953,1.614e-05,0.0,0 STARLINK-4745,1 53844U 22114AC  23022.25054148  .00001614  00000-0  11953-3 0  9996,2 53844  53.2191  22.6192 0001419 108.7496 251.3650 15.08830775 19960,6917.909000000001,95.438,540.755,538.7919999999999,0.0
53844.0,STARLINK-4745,PAYLOAD,2023-01-22 07:36:09,15.08840367,0.0001353,53.2202,22.3221,106.956,253.1581,0.00012887,1.764e-05,0.0,0 STARLINK-4745,1 53844U 22114AC  23022.31677519  .00001764  00000-0  12887-3 0  9999,2 53844  53.2202  22.3221 0001353 106.9560 253.1581 15.08840367 19974,6917.879,95.438,540.68,538.808,0.0
53844.0,STARLINK-4745,PAYLOAD,2023-01-23 05:51:34,15.08828358,0.0001457,53.2194,18.1585,87.4755,272.6404,1.902e-05,1.5e-07,0.0,0 STARLINK-4745,1 53844U 22114AC  23023.24415086  .00000015  00000-0  19020-4 0  9996,2 53844  53.2194  18.1585 0001457  87.4755 272.6404 15.08828358 20118,6917.916,95.438,540.789,538.773,0.0
53844.0,STARLINK-4745,PAYLOAD,2023-01-23 16:59:16,15.08837477,0.0001439,53.2213,16.0738,103.1668,256.9485,-4.3864e-05,-9.86e-06,0.0,0 STARLINK-4745,1 53844U 22114AC  23023.70782733 -.00000986  00000-0 -43864-4 0  9995,2 53844  53.2213  16.0738 0001439 103.1668 256.9485 15.08837477 20189,6917.888000000001,95.438,540.749,538.758,0.0
53844.0,STARLINK-4745,PAYLOAD,2023-01-24 05:42:20,15.08854684,0.0001274999999999,53.2205,13.6978,77.3446,282.7689,2.5128e-06,-2.48e-06,0.0,0 STARLINK-4745,1 53844U 22114AC  23024.23773461 -.00000248  00000-0  25128-5 0  9996,2 53844  53.2205  13.6978 0001275  77.3446 282.7689 15.08854684 20264,6917.835999999999,95.437,540.5830000000001,538.818,0.0
53844.0,STARLINK-4745,PAYLOAD,2023-01-25 05:33:07,15.08841857,0.0001118,53.2199,9.235,94.3065,265.8055,2.8512e-05,1.66e-06,0.0,0 STARLINK-4745,1 53844U 22114AC  23025.23134241  .00000166  00000-0  28512-4 0  9991,2 53844  53.2199   9.2350 0001118  94.3065 265.8055 15.08841857 20417,6917.875,95.437,540.513,538.966,0.0
53844.0,STARLINK-4745,PAYLOAD,2023-01-25 08:43:54,15.08842634,0.0001118,53.2199,8.64,94.6081,265.5039,3.5628000000000005e-05,2.79e-06,0.0,0 STARLINK-4745,1 53844U 22114AC  23025.36382132  .00000279  00000-0  35628-4 0  9990,2 53844  53.2199   8.6400 0001118  94.6081 265.5039 15.08842634 20971,6917.871999999999,95.437,540.511,538.964,0.0
